{
  "type": "FeatureCollection",
  "features": [
    {
      "type": "Feature",
      "properties": {
        "norad_id": 65729,
        "name": "DRAGONFLY",
        "group": "stations",
        "lat": 36.676191414525896,
        "lon": -47.99951568179244,
        "alt_km": 356.9144234095311,
        "timestamp": "2025-12-06T09:34:15.718628+00:00",
        "meta_object_name": "DRAGONFLY",
        "meta_object_id": "1998-067XH",
        "meta_epoch": "2025-12-05T22:19:10.752384",
        "meta_mean_motion": 15.69233632,
        "meta_eccentricity": 0.00065123,
        "meta_inclination": 51.6246,
        "meta_ra_of_asc_node": 170.5624,
        "meta_arg_of_pericenter": 233.7397,
        "meta_mean_anomaly": 126.2998,
        "meta_ephemeris_type": 0,
        "meta_classification_type": "U",
        "meta_norad_cat_id": 65729,
        "meta_element_set_no": 999,
        "meta_rev_at_epoch": 1209,
        "meta_bstar": 0.0014111437,
        "meta_mean_motion_dot": 0.00170954,
        "meta_mean_motion_ddot": 0,
        "tle_line1": "1 65729U 98067XH  25339.92998556  .00170954  00000+0  14111-2 0  9999",
        "tle_line2": "2 65729  51.6246 170.5624 0006512 233.7397 126.2998 15.69233632 12097"
      },
      "geometry": {
        "type": "Point",
        "coordinates": [
          -47.99951568179244,
          36.676191414525896
        ]
      }
    },
    {
      "type": "Feature",
      "properties": {
        "norad_id": 65731,
        "name": "1998-067XK",
        "group": "stations",
        "lat": -49.62586089582315,
        "lon": 100.63031082680895,
        "alt_km": 379.1304535431145,
        "timestamp": "2025-12-06T09:34:15.718638+00:00",
        "meta_object_name": "1998-067XK",
        "meta_object_id": "1998-067XK",
        "meta_epoch": "2025-12-05T20:05:48.700608",
        "meta_mean_motion": 15.64093983,
        "meta_eccentricity": 0.00057209,
        "meta_inclination": 51.6273,
        "meta_ra_of_asc_node": 172.2071,
        "meta_arg_of_pericenter": 204.6703,
        "meta_mean_anomaly": 155.4018,
        "meta_ephemeris_type": 0,
        "meta_classification_type": "U",
        "meta_norad_cat_id": 65731,
        "meta_element_set_no": 999,
        "meta_rev_at_epoch": 1206,
        "meta_bstar": 0.0011848304,
        "meta_mean_motion_dot": 0.00115678,
        "meta_mean_motion_ddot": 0,
        "tle_line1": "1 65731U 98067XK  25339.83736922  .00115678  00000+0  11848-2 0  9995",
        "tle_line2": "2 65731  51.6273 172.2071 0005720 204.6703 155.4018 15.64093983 12065"
      },
      "geometry": {
        "type": "Point",
        "coordinates": [
          100.63031082680895,
          -49.62586089582315
        ]
      }
    },
    {
      "type": "Feature",
      "properties": {
        "norad_id": 65732,
        "name": "RSP-03",
        "group": "stations",
        "lat": -12.165283934880353,
        "lon": -1.3734620676708886,
        "alt_km": 366.47651892618615,
        "timestamp": "2025-12-06T09:34:15.718648+00:00",
        "meta_object_name": "RSP-03",
        "meta_object_id": "1998-067XL",
        "meta_epoch": "2025-12-05T18:57:39.721248",
        "meta_mean_motion": 15.66485796,
        "meta_eccentricity": 0.00063944,
        "meta_inclination": 51.6249,
        "meta_ra_of_asc_node": 171.8843,
        "meta_arg_of_pericenter": 207.4241,
        "meta_mean_anomaly": 152.6418,
        "meta_ephemeris_type": 0,
        "meta_classification_type": "U",
        "meta_norad_cat_id": 65732,
        "meta_element_set_no": 999,
        "meta_rev_at_epoch": 1207,
        "meta_bstar": 0.0013603267,
        "meta_mean_motion_dot": 0.00146827,
        "meta_mean_motion_ddot": 0,
        "tle_line1": "1 65732U 98067XL  25339.79004307  .00146827  00000+0  13603-2 0  9997",
        "tle_line2": "2 65732  51.6249 171.8843 0006394 207.4241 152.6418 15.66485796 12070"
      },
      "geometry": {
        "type": "Point",
        "coordinates": [
          -1.3734620676708886,
          -12.165283934880353
        ]
      }
    },
    {
      "type": "Feature",
      "properties": {
        "norad_id": 65733,
        "name": "GHS-01",
        "group": "stations",
        "lat": -11.50898043814108,
        "lon": 158.44073892466696,
        "alt_km": 357.73816418122533,
        "timestamp": "2025-12-06T09:34:15.718659+00:00",
        "meta_object_name": "GHS-01",
        "meta_object_id": "1998-067XM",
        "meta_epoch": "2025-12-05T18:22:20.248896",
        "meta_mean_motion": 15.71403318,
        "meta_eccentricity": 0.00069806,
        "meta_inclination": 51.6266,
        "meta_ra_of_asc_node": 170.9683,
        "meta_arg_of_pericenter": 233.1607,
        "meta_mean_anomaly": 126.8751,
        "meta_ephemeris_type": 0,
        "meta_classification_type": "U",
        "meta_norad_cat_id": 65733,
        "meta_element_set_no": 999,
        "meta_rev_at_epoch": 1208,
        "meta_bstar": 0.0017020077,
        "meta_mean_motion_dot": 0.00227447,
        "meta_mean_motion_ddot": 0,
        "tle_line1": "1 65733U 98067XM  25339.76551214  .00227447  00000+0  17020-2 0  9994",
        "tle_line2": "2 65733  51.6266 170.9683 0006980 233.1607 126.8751 15.71403318 12085"
      },
      "geometry": {
        "type": "Point",
        "coordinates": [
          158.44073892466696,
          -11.50898043814108
        ]
      }
    },
    {
      "type": "Feature",
      "properties": {
        "norad_id": 65941,
        "name": "YOTSUBA-KULOVER",
        "group": "stations",
        "lat": -2.4819761115241534,
        "lon": -6.210837651378129,
        "alt_km": 392.10551044973727,
        "timestamp": "2025-12-06T09:34:15.718674+00:00",
        "meta_object_name": "YOTSUBA-KULOVER",
        "meta_object_id": "1998-067XN",
        "meta_epoch": "2025-12-05T22:00:54.491904",
        "meta_mean_motion": 15.58286182,
        "meta_eccentricity": 0.00020197,
        "meta_inclination": 51.6277,
        "meta_ra_of_asc_node": 174.238,
        "meta_arg_of_pericenter": 187.9006,
        "meta_mean_anomaly": 172.1955,
        "meta_ephemeris_type": 0,
        "meta_classification_type": "U",
        "meta_norad_cat_id": 65941,
        "meta_element_set_no": 999,
        "meta_rev_at_epoch": 879,
        "meta_bstar": 0.0010118942,
        "meta_mean_motion_dot": 0.0007842,
        "meta_mean_motion_ddot": 0,
        "tle_line1": "1 65941U 98067XN  25339.91729736  .00078420  00000+0  10119-2 0  9995",
        "tle_line2": "2 65941  51.6277 174.2380 0002019 187.9006 172.1955 15.58286182  8793"
      },
      "geometry": {
        "type": "Point",
        "coordinates": [
          -6.210837651378129,
          -2.4819761115241534
        ]
      }
    },
    {
      "type": "Feature",
      "properties": {
        "norad_id": 65942,
        "name": "BOTAN",
        "group": "stations",
        "lat": 50.55862002706587,
        "lon": -114.29340569228864,
        "alt_km": 378.0201794648119,
        "timestamp": "2025-12-06T09:34:15.718684+00:00",
        "meta_object_name": "BOTAN",
        "meta_object_id": "1998-067XP",
        "meta_epoch": "2025-12-05T19:24:08.395200",
        "meta_mean_motion": 15.6107927,
        "meta_eccentricity": 0.00040957,
        "meta_inclination": 51.6268,
        "meta_ra_of_asc_node": 174.2609,
        "meta_arg_of_pericenter": 186.092,
        "meta_mean_anomaly": 174.0025,
        "meta_ephemeris_type": 0,
        "meta_classification_type": "U",
        "meta_norad_cat_id": 65942,
        "meta_element_set_no": 999,
        "meta_rev_at_epoch": 878,
        "meta_bstar": 0.0014404532,
        "meta_mean_motion_dot": 0.001252,
        "meta_mean_motion_ddot": 0,
        "tle_line1": "1 65942U 98067XP  25339.80843050  .00125200  00000+0  14405-2 0  9991",
        "tle_line2": "2 65942  51.6268 174.2609 0004095 186.0920 174.0025 15.61079270  8789"
      },
      "geometry": {
        "type": "Point",
        "coordinates": [
          -114.29340569228864,
          50.55862002706587
        ]
      }
    },
    {
      "type": "Feature",
      "properties": {
        "norad_id": 65943,
        "name": "E-KAGAKU-1",
        "group": "stations",
        "lat": -2.8346791441394656,
        "lon": -5.928593933842622,
        "alt_km": 391.48112326021146,
        "timestamp": "2025-12-06T09:34:15.718695+00:00",
        "meta_object_name": "E-KAGAKU-1",
        "meta_object_id": "1998-067XQ",
        "meta_epoch": "2025-12-05T20:28:25.846752",
        "meta_mean_motion": 15.58235285,
        "meta_eccentricity": 0.00033373,
        "meta_inclination": 51.6291,
        "meta_ra_of_asc_node": 174.5622,
        "meta_arg_of_pericenter": 163.5442,
        "meta_mean_anomaly": 196.5659,
        "meta_ephemeris_type": 0,
        "meta_classification_type": "U",
        "meta_norad_cat_id": 65943,
        "meta_element_set_no": 999,
        "meta_rev_at_epoch": 878,
        "meta_bstar": 0.00098694907,
        "meta_mean_motion_dot": 0.00076316,
        "meta_mean_motion_ddot": 0,
        "tle_line1": "1 65943U 98067XQ  25339.85307693  .00076316  00000+0  98695-3 0  9992",
        "tle_line2": "2 65943  51.6291 174.5622 0003337 163.5442 196.5659 15.58235285  8789"
      },
      "geometry": {
        "type": "Point",
        "coordinates": [
          -5.928593933842622,
          -2.8346791441394656
        ]
      }
    }
  ]
}